[ {"name": "STARLINK-34808", "line1": "1 65745U 25216M   26200.06577405  .00003245  00000+0  12165-3 0  9998", "line2": "2 65745  53.1607  82.2484 0001592  87.6162 272.5021 15.30199302 46637"}, {"name": "STARLINK-34704", "line1": "1 65746U 25216N   26200.06997175  .00013831  00000+0  41965-3 0  9991", "line2": "2 65746  53.1608  82.2789 0001404  95.1823 264.9340 15.34406858 46659"}, {"name": "STARLINK-35214", "line1": "1 65747U 25216P   26200.05313661  .00016169  00000+0  48851-3 0  9991", "line2": "2 65747  53.1596  82.1730 0001105 102.0326 258.0800 15.34408902 46663"}, {"name": "STARLINK-35265", "line1": "1 65748U 25216Q   26199.96906887  .00006471  00000+0  20250-3 0  9995", "line2": "2 65748  53.1573  82.3671 0001208  92.0757 268.0384 15.34395779 45579"}, {"name": "STARLINK-35288", "line1": "1 65749U 25216R   26199.99642143  .00008538  00000+0  26351-3 0  9995", "line2": "2 65749  53.1602  82.5301 0000962 108.8037 251.3070 15.34401813 46629"}, {"name": "STARLINK-35165", "line1": "1 65750U 25216S   26200.10354595  .00013969  00000+0  42371-3 0  9998", "line2": "2 65750  53.1578  81.7804 0001132  96.6615 263.4517 15.34407306 46643"}, {"name": "STARLINK-35260", "line1": "1 65751U 25216T   26200.05945314  .00014738  00000+0  44642-3 0  9996", "line2": "2 65751  53.1599  82.2102 0001228  88.1178 271.9965 15.34402790 46665"}, {"name": "STARLINK-34893", "line1": "1 65752U 25216U   26199.94601483  .00007700  00000+0  23880-3 0  9990", "line2": "2 65752  53.1612  82.9316 0001340  92.4881 267.6275 15.34397567 46616"}, {"name": "STARLINK-34894", "line1": "1 65753U 25216V   26200.25002315 -.00013031  00000+0 -37543-3 0  9994", "line2": "2 65753  53.1593  81.6204 0000906  84.2307  98.0192 15.34382250  5876"}, {"name": "STARLINK-35287", "line1": "1 65754U 25216W   26200.06894141  .00016208  00000+0  55813-3 0  9997", "line2": "2 65754  53.1603  82.2680 0001300 112.6710 247.4429 15.30202316 46628"}, {"name": "STARLINK-35294", "line1": "1 65755U 25216X   26198.18206628  .00258841  00000+0  83264-2 0  9995", "line2": "2 65755  53.1592  91.1114 0001800 135.6323 224.4822 15.30682323 46371"}, {"name": "STARLINK-35275", "line1": "1 65756U 25216Y   26200.08259476  .00018107  00000+0  54562-3 0  9997", "line2": "2 65756  53.1594  82.3563 0000593  53.3597 306.7460 15.34406426 46667"}, {"name": "STARLINK-35211", "line1": "1 65757U 25216Z   26199.97538383  .00012152  00000+0  37016-3 0  9999", "line2": "2 65757  53.1595  82.3998 0001582  86.5212 273.5971 15.34403789 46658"}, {"name": "STARLINK-35313", "line1": "1 65758U 25216AA  26199.93759858  .00016981  00000+0  51260-3 0  9999", "line2": "2 65758  53.1609  82.8711 0001107  76.0982 284.0144 15.34398951 46602"}, {"name": "STARLINK-34692", "line1": "1 65759U 25216AB  26199.91234942  .00014792  00000+0  44805-3 0  9995", "line2": "2 65759  53.1584  82.7149 0001383  55.9148 304.1986 15.34401623 46604"}, {"name": "STARLINK-34890", "line1": "1 65760U 25216AC  26200.10144372  .00007473  00000+0  23207-3 0  9999", "line2": "2 65760  53.1585  81.7631 0001312  92.5481 267.5672 15.34400267 46664"}, {"name": "STARLINK-34889", "line1": "1 65761U 25216AD  26200.05734798  .00008930  00000+0  27509-3 0  9999", "line2": "2 65761  53.1592  82.1993 0001248 100.2620 259.8524 15.34401605 46712"}, {"name": "STARLINK-35330", "line1": "1 65791U 25218A   26200.19906235  .00001462  00000+0  10520-3 0  9994", "line2": "2 65791  97.2853  60.2644 0002839  83.9215 276.2336 15.05657445 44757"}, {"name": "STARLINK-35373", "line1": "1 65792U 25218B   26200.16583602  .00001362  00000+0  98245-4 0  9991", "line2": "2 65792  97.2840  60.3092 0002675  87.4143 272.7391 15.05662333 44753"}, {"name": "STARLINK-35383", "line1": "1 65793U 25218C   26200.14922537  .00002541  00000+0  17987-3 0  9997", "line2": "2 65793  97.2845  60.3316 0002285  87.8671 272.2818 15.05660208 44753"}, {"name": "STARLINK-35378", "line1": "1 65794U 25218D   26200.19075614  .00000593  00000+0  45000-4 0  9991", "line2": "2 65794  97.2838  60.2747 0002655  86.3494 273.8037 15.05654540 44753"}, {"name": "STARLINK-35406", "line1": "1 65795U 25218E   26200.18244974  .00000909  00000+0  66864-4 0  9990", "line2": "2 65795  97.2838  60.2846 0001499 119.4209 240.7168 15.05655301 44755"}, {"name": "STARLINK-35390", "line1": "1 65796U 25218F   26200.15754343  .00003166  00000+0  22314-3 0  9993", "line2": "2 65796  97.2854  60.3199 0002485  77.4439 282.7067 15.05664180 44759"}, {"name": "STARLINK-35412", "line1": "1 65797U 25218G   26200.20739765  .00003275  00000+0  23076-3 0  9998", "line2": "2 65797  97.2852  60.4075 0002446  86.1543 273.9964 15.05656800 44761"}, {"name": "STARLINK-35414", "line1": "1 65798U 25218H   26200.17414059  .00002702  00000+0  19106-3 0  9994", "line2": "2 65798  97.2847  60.2961 0002464  84.2888 275.8620 15.05662205 44754"}, {"name": "STARLINK-35357", "line1": "1 65799U 25218J   26200.17967925  .00002451  00000+0  17368-3 0  9999", "line2": "2 65799  97.2845  60.2902 0001470 104.0220 256.1171 15.05661951 44755"}, {"name": "STARLINK-35300", "line1": "1 65800U 25218K   26200.19629129  .00000739  00000+0  55124-4 0  9995", "line2": "2 65800  97.2847  60.2686 0002965  83.6390 276.5175 15.05655944 44754"}, {"name": "STARLINK-35296", "line1": "1 65801U 25218L   26200.21292919  .00001280  00000+0  92611-4 0  9996", "line2": "2 65801  97.2863  60.3987 0002971  75.2601 284.8956 15.05649510 44769"}, {"name": "STARLINK-34919", "line1": "1 65802U 25218M   26200.16306623  .00002748  00000+0  19426-3 0  9991", "line2": "2 65802  97.2844  60.3122 0002429  72.1532 287.9960 15.05661164 44754"}, {"name": "STARLINK-35286", "line1": "1 65803U 25218N   26200.19352420  .00001629  00000+0  11677-3 0  9998", "line2": "2 65803  97.2849  60.2715 0002829  76.8126 283.3418 15.05655598 44753"}]