OBJECT_NAME,OBJECT_ID,EPOCH,MEAN_MOTION,ECCENTRICITY,INCLINATION,RA_OF_ASC_NODE,ARG_OF_PERICENTER,MEAN_ANOMALY,EPHEMERIS_TYPE,CLASSIFICATION_TYPE,NORAD_CAT_ID,ELEMENT_SET_NO,REV_AT_EPOCH,BSTAR,MEAN_MOTION_DOT,MEAN_MOTION_DDOT
STARLINK-34808,2025-216M,2026-07-19T01:34:42.877920,15.30199302,.00015927,53.1607,82.2484,87.6162,272.5021,0,U,65745,999,4663,.12165033E-3,.3245E-4,0
STARLINK-34704,2025-216N,2026-07-19T01:40:45.559200,15.34406858,.00014049,53.1608,82.2789,95.1823,264.9340,0,U,65746,999,4665,.4196452E-3,.13831E-3,0
STARLINK-35214,2025-216P,2026-07-19T01:16:31.003104,15.34408902,.00011052,53.1596,82.1730,102.0326,258.0800,0,U,65747,999,4666,.48850723E-3,.16169E-3,0
STARLINK-35265,2025-216Q,2026-07-18T23:15:27.550368,15.34395779,.00012084,53.1573,82.3671,92.0757,268.0384,0,U,65748,999,4557,.20250357E-3,.6471E-4,0
STARLINK-35288,2025-216R,2026-07-18T23:54:50.811552,15.34401813,.00009623,53.1602,82.5301,108.8037,251.3070,0,U,65749,999,4662,.26351298E-3,.8538E-4,0
STARLINK-35165,2025-216S,2026-07-19T02:29:06.370080,15.34407306,.00011327,53.1578,81.7804,96.6615,263.4517,0,U,65750,999,4664,.4237068E-3,.13969E-3,0
STARLINK-35260,2025-216T,2026-07-19T01:25:36.751296,15.34402790,.00012285,53.1599,82.2102,88.1178,271.9965,0,U,65751,999,4666,.44642066E-3,.14738E-3,0
STARLINK-34893,2025-216U,2026-07-18T22:42:15.681312,15.34397567,.00013405,53.1612,82.9316,92.4881,267.6275,0,U,65752,999,4661,.23880027E-3,.77E-4,0
STARLINK-34894,2025-216V,2026-07-19T06:00:02.000160,15.34382250,.00009067,53.1593,81.6204,84.2307,98.0192,0,U,65753,999,587,-.3754282E-3,-.13031E-3,0
STARLINK-35287,2025-216W,2026-07-19T01:39:16.537824,15.30202316,.00013001,53.1603,82.2680,112.6710,247.4429,0,U,65754,999,4662,.5581339E-3,.16208E-3,0
STARLINK-35294,2025-216X,2026-07-17T04:22:10.526592,15.30682323,.00018002,53.1592,91.1114,135.6323,224.4822,0,U,65755,999,4637,.83264297E-2,.258841E-2,0
STARLINK-35275,2025-216Y,2026-07-19T01:58:56.187264,15.34406426,.0000593,53.1594,82.3563,53.3597,306.7460,0,U,65756,999,4666,.54562436E-3,.18107E-3,0
STARLINK-35211,2025-216Z,2026-07-18T23:24:33.162912,15.34403789,.00015829,53.1595,82.3998,86.5212,273.5971,0,U,65757,999,4665,.37016207E-3,.12152E-3,0
STARLINK-35313,2025-216AA,2026-07-18T22:30:08.517312,15.34398951,.00011076,53.1609,82.8711,76.0982,284.0144,0,U,65758,999,4660,.51259816E-3,.16981E-3,0
STARLINK-34692,2025-216AB,2026-07-18T21:53:46.989888,15.34401623,.00013831,53.1584,82.7149,55.9148,304.1986,0,U,65759,999,4660,.44804543E-3,.14792E-3,0
STARLINK-34890,2025-216AC,2026-07-19T02:26:04.737408,15.34400267,.00013122,53.1585,81.7631,92.5481,267.5672,0,U,65760,999,4666,.23207488E-3,.7473E-4,0
STARLINK-34889,2025-216AD,2026-07-19T01:22:34.865472,15.34401605,.00012487,53.1592,82.1993,100.2620,259.8524,0,U,65761,999,4671,.27509324E-3,.893E-4,0
STARLINK-35330,2025-218A,2026-07-19T04:46:38.987040,15.05657445,.00028394,97.2853,60.2644,83.9215,276.2336,0,U,65791,999,4475,.10519733E-3,.1462E-4,0
STARLINK-35373,2025-218B,2026-07-19T03:58:48.232128,15.05662333,.00026759,97.2840,60.3092,87.4143,272.7391,0,U,65792,999,4475,.98244945E-4,.1362E-4,0
STARLINK-35383,2025-218C,2026-07-19T03:34:53.071968,15.05660208,.00022856,97.2845,60.3316,87.8671,272.2818,0,U,65793,999,4475,.17987469E-3,.2541E-4,0
STARLINK-35378,2025-218D,2026-07-19T04:34:41.330496,15.05654540,.00026558,97.2838,60.2747,86.3494,273.8037,0,U,65794,999,4475,.44999799E-4,.593E-5,0
STARLINK-35406,2025-218E,2026-07-19T04:22:43.657536,15.05655301,.00014998,97.2838,60.2846,119.4209,240.7168,0,U,65795,999,4475,.66863847E-4,.909E-5,0
STARLINK-35390,2025-218F,2026-07-19T03:46:51.752352,15.05664180,.00024859,97.2854,60.3199,77.4439,282.7067,0,U,65796,999,4475,.22314293E-3,.3166E-4,0
STARLINK-35412,2025-218G,2026-07-19T04:58:39.156960,15.05656800,.00024465,97.2852,60.4075,86.1543,273.9964,0,U,65797,999,4476,.230764E-3,.3275E-4,0
STARLINK-35414,2025-218H,2026-07-19T04:10:45.746976,15.05662205,.00024642,97.2847,60.2961,84.2888,275.8620,0,U,65798,999,4475,.19105947E-3,.2702E-4,0
STARLINK-35357,2025-218J,2026-07-19T04:18:44.287200,15.05661951,.00014703,97.2845,60.2902,104.0220,256.1171,0,U,65799,999,4475,.17367948E-3,.2451E-4,0
STARLINK-35300,2025-218K,2026-07-19T04:42:39.567456,15.05655944,.00029658,97.2847,60.2686,83.6390,276.5175,0,U,65800,999,4475,.55123744E-4,.739E-5,0
STARLINK-35296,2025-218L,2026-07-19T05:06:37.082016,15.05649510,.00029718,97.2863,60.3987,75.2601,284.8956,0,U,65801,999,4476,.92610795E-4,.128E-4,0
STARLINK-34919,2025-218M,2026-07-19T03:54:48.922272,15.05661164,.00024294,97.2844,60.3122,72.1532,287.9960,0,U,65802,999,4475,.19425739E-3,.2748E-4,0
STARLINK-35286,2025-218N,2026-07-19T04:38:40.490880,15.05655598,.00028291,97.2849,60.2715,76.8126,283.3418,0,U,65803,999,4475,.11676538E-3,.1629E-4,0
